ONEWEB-0549             
1 56051U 23043F   25344.37896277  .00000099  00000+0  20932-3 0  9992
2 56051  87.9213 281.6459 0001882  69.2031 290.9304 13.21825267133285
ONEWEB-0550             
1 56052U 23043G   25344.59288745  .00000042  00000+0  69272-4 0  9991
2 56052  87.9216 281.5980 0001811  80.6448 279.4891 13.21820991133314
ONEWEB-0551             
1 56053U 23043H   25344.60912116  .00000057  00000+0  11616-3 0  9994
2 56053  87.8988 296.8622 0001925  74.2946 285.8396 13.15549063131602
ONEWEB-0552             
1 56054U 23043J   25344.58795166  .00000018  00000+0  13272-4 0  9994
2 56054  87.9216 281.6076 0002056  74.4156 285.7204 13.21825770133310
ONEWEB-0553             
1 56055U 23043K   25344.70946551  .00000139  00000+0  32887-3 0  9991
2 56055  87.9045 266.3041 0001386  82.1856 277.9432 13.16595484134172
ONEWEB-0554             
1 56056U 23043L   25344.54480022  .00000144  00000+0  34265-3 0  9998
2 56056  87.9032 266.3511 0001793  82.6679 277.4655 13.16596660134136
ONEWEB-0555             
1 56057U 23043M   25344.50681256  .00000026  00000+0  35260-4 0  9993
2 56057  87.9045 266.3393 0001200  84.0176 276.1092 13.16595301134132
ONEWEB-0557             
1 56058U 23043N   25344.74904227 -.00000028  00000+0 -10682-3 0  9990
2 56058  87.9042 266.3040 0001901 116.1856 243.9471 13.16595922134164
